STARLINK-2354           
1 47894U 21021AL  25139.31770462  .00003647  00000+0  26344-3 0  9999
2 47894  53.0538 153.1022 0001361  87.2351 272.8794 15.06422002231354
STARLINK-2355           
1 47895U 21021AM  25139.32879746  .00001585  00000+0  12528-3 0  9994
2 47895  53.0534 153.0519 0001246  82.1189 277.9941 15.06397281231806
STARLINK-2356           
1 47896U 21021AN  25139.38823098 -.00000286  00000+0 -32056-6 0  9990
2 47896  53.0541 167.7922 0001110  88.1665 271.9452 15.06394871231577
STARLINK-2358           
1 47898U 21021AQ  25139.71950308  .00000295  00000+0  38708-4 0  9990
2 47898  53.0545 151.2972 0001402  95.9286 264.1862 15.06393135231419
STARLINK-2361           
1 47901U 21021AT  25139.30760166  .00001401  00000+0  11290-3 0  9997
2 47901  53.0534 143.2349 0001316  87.7420 272.3720 15.06403729231958
STARLINK-2363           
1 47903U 21021AV  25139.71209607  .00000546  00000+0  55563-4 0  9993
2 47903  53.0529 141.3255 0001228  80.6801 279.4326 15.06398652231550
STARLINK-2364           
1 47904U 21021AW  25139.31127042 -.00002025  00000+0 -11705-3 0  9997
2 47904  53.0539 143.1374 0001373  97.8865 262.2280 15.06406020231946
STARLINK-2367           
1 47907U 21021AZ  25139.78124515  .00002432  00000+0  18208-3 0  9998
2 47907  53.0523 161.0220 0001054  78.3671 281.7436 15.06409160231279
STARLINK-2368           
1 47908U 21021BA  25139.32417876  .00002746  00000+0  20316-3 0  9995
2 47908  53.0528 163.0753 0001227  90.7897 269.3232 15.06406181231678
STARLINK-2370           
1 47910U 21021BC  25139.32511262  .00000406  00000+0  46151-4 0  9999
2 47910  53.0539 153.2348 0001306  91.6720 268.4419 15.06400672231831
STARLINK-2371           
1 47911U 21021BD  25139.45829458 -.00000490  00000+0 -14029-4 0  9997
2 47911  53.0538 167.7184 0001290  91.3255 268.7882 15.06395614231477
STARLINK-2378           
1 47916U 21021BJ  25139.30021401  .00001222  00000+0  10092-3 0  9995
2 47916  53.0540 143.1844 0001299  86.6001 273.5136 15.06404883231948
STARLINK-2405           
1 47919U 21021BM  25139.56377057 -.00000713  00000+0 -28973-4 0  9991
2 47919  53.0538 162.0001 0001245  86.1208 273.9923 15.06395132231706
CAS500-1                
1 47932U 21022A   25139.90550940  .00007137  00000+0  33195-3 0  9995
2 47932  97.4292  37.0849 0006528 208.0336 152.0549 15.20243068231018
GRUS-1C                 
1 47933U 21022B   25139.84889835  .00002095  00000+0  18354-3 0  9995
2 47933  97.5882  30.0196 0013818 196.7246 163.3522 14.97672431227009
GRUS-1B                 
1 47934U 21022C   25139.83690762  .00001965  00000+0  17226-3 0  9996
2 47934  97.5883  30.0355 0016959 199.7564 160.3004 14.97674207226995
GRUS-1E                 
1 47935U 21022D   25139.87693145  .00000959  00000+0  84043-4 0  9993
2 47935  97.5897  30.5525 0015991 202.5759 157.4763 14.98882488227015
GRUS-1D                 
1 47936U 21022E   25139.86376296  .00000985  00000+0  88729-4 0  9992
2 47936  97.5897  30.2249 0013416 187.9473 172.1539 14.97733172227003
WILDTRACKCUBE-SIMBA     
1 47941U 21022K   25139.78309902  .00026959  00000+0  58652-3 0  9999
2 47941  97.4239  43.8648 0011232  40.9489 319.2600 15.44218995229986
ELSA-D                  
1 47944U 21022N   25139.75750157  .00150334  00000+0  11556-2 0  9997
2 47944  97.4254  52.4348 0005128  47.1677 313.0016 15.71563365230567
UNISAT-7                
1 47945U 21022P   25139.30363895  .00010101  00000+0  36125-3 0  9995
2 47945  97.4231  37.9875 0013005  48.0504 312.1842 15.28920346229460
CUBESX-SIRIUS-HSE       
1 47951U 21022V   25139.83452640  .00373921  54108-4  12413-2 0  9995
2 47951  97.4106  52.4150 0005728 107.8233 252.3665 15.90274749230550
CUBESX-HSE              
1 47952U 21022W   25139.65745617  .00385034  57506-4  12642-2 0  9992
2 47952  97.4122  52.4880 0005217 110.7289 249.4544 15.90497341230543
GRBALPHA                
1 47959U 21022AD  25139.39892127  .00375828  53574-4  13584-2 0  9996
2 47959  97.4120  52.2742 0005338 104.6610 255.5254 15.88577373229328
GLOBAL-9                
1 47971U 21023G   25139.41066312  .00017679  00000+0  48023-3 0  9998
2 47971  44.9849 282.9474 0008718 323.0756  36.9530 15.37357775234223
STARLINK-1647           
1 47978U 21024B   25139.52738737  .00000568  00000+0  56988-4 0  9994
2 47978  53.0524 217.1647 0000793  83.7344 276.3735 15.06393334230221
STARLINK-2303           
1 47981U 21024E   25139.51632059 -.00000694  00000+0 -27711-4 0  9991
2 47981  53.0550 217.2126 0001126  95.9619 264.1498 15.06396597230223
STARLINK-2273           
1 47993U 21024S   25139.81118129  .00000252  00000+0  35774-4 0  9990
2 47993  53.0537 175.8875 0001144  86.0671 274.0449 15.06398206230304
STARLINK-2309           
1 47995U 21024U   25139.91667824  .00214489  00000+0  26169-2 0  9999
2 47995  53.0475 145.9635 0001453  92.6979 351.0836 15.59245898230735
STARLINK-2266           
1 47997U 21024W   25139.46518044 -.00000010  00000+0  18229-4 0  9994
2 47997  53.0542 192.4455 0001102  94.2508 265.8607 15.06393243230565
