OBJECT_NAME,OBJECT_ID,EPOCH,MEAN_MOTION,ECCENTRICITY,INCLINATION,RA_OF_ASC_NODE,ARG_OF_PERICENTER,MEAN_ANOMALY,EPHEMERIS_TYPE,CLASSIFICATION_TYPE,NORAD_CAT_ID,ELEMENT_SET_NO,REV_AT_EPOCH,BSTAR,MEAN_MOTION_DOT,MEAN_MOTION_DDOT
STARLINK-2354,2021-021AL,2025-05-19T07:37:29.679168,15.06422002,.0001361,53.0538,153.1022,87.2351,272.8794,0,U,47894,999,23135,.26344E-3,.3647E-4,0
STARLINK-2355,2021-021AM,2025-05-19T07:53:28.100544,15.06397281,.0001246,53.0534,153.0519,82.1189,277.9941,0,U,47895,999,23180,.12528E-3,.1585E-4,0
STARLINK-2356,2021-021AN,2025-05-19T09:19:03.156672,15.06394871,.000111,53.0541,167.7922,88.1665,271.9452,0,U,47896,999,23157,-.32056E-6,-.286E-5,0
STARLINK-2358,2021-021AQ,2025-05-19T17:16:05.066112,15.06393135,.0001402,53.0545,151.2972,95.9286,264.1862,0,U,47898,999,23141,.38708E-4,.295E-5,0
STARLINK-2361,2021-021AT,2025-05-19T07:22:56.783424,15.06403729,.0001316,53.0534,143.2349,87.7420,272.3720,0,U,47901,999,23195,.1129E-3,.1401E-4,0
STARLINK-2363,2021-021AV,2025-05-19T17:05:25.100448,15.06398652,.0001228,53.0529,141.3255,80.6801,279.4326,0,U,47903,999,23155,.55563E-4,.546E-5,0
STARLINK-2364,2021-021AW,2025-05-19T07:28:13.764288,15.06406020,.0001373,53.0539,143.1374,97.8865,262.2280,0,U,47904,999,23194,-.11705E-3,-.2025E-4,0
STARLINK-2367,2021-021AZ,2025-05-19T18:44:59.580960,15.06409160,.0001054,53.0523,161.0220,78.3671,281.7436,0,U,47907,999,23127,.18208E-3,.2432E-4,0
STARLINK-2368,2021-021BA,2025-05-19T07:46:49.044864,15.06406181,.0001227,53.0528,163.0753,90.7897,269.3232,0,U,47908,999,23167,.20316E-3,.2746E-4,0
STARLINK-2370,2021-021BC,2025-05-19T07:48:09.730368,15.06400672,.0001306,53.0539,153.2348,91.6720,268.4419,0,U,47910,999,23183,.46151E-4,.406E-5,0
STARLINK-2371,2021-021BD,2025-05-19T10:59:56.651712,15.06395614,.000129,53.0538,167.7184,91.3255,268.7882,0,U,47911,999,23147,-.14029E-4,-.49E-5,0
STARLINK-2378,2021-021BJ,2025-05-19T07:12:18.490464,15.06404883,.0001299,53.0540,143.1844,86.6001,273.5136,0,U,47916,999,23194,.10092E-3,.1222E-4,0
STARLINK-2405,2021-021BM,2025-05-19T13:31:49.777248,15.06395132,.0001245,53.0538,162.0001,86.1208,273.9923,0,U,47919,999,23170,-.28973E-4,-.713E-5,0
CAS500-1,2021-022A,2025-05-19T21:43:56.012160,15.20243068,.0006528,97.4292,37.0849,208.0336,152.0549,0,U,47932,999,23101,.33195E-3,.7137E-4,0
GRUS-1C,2021-022B,2025-05-19T20:22:24.817440,14.97672431,.0013818,97.5882,30.0196,196.7246,163.3522,0,U,47933,999,22700,.18354E-3,.2095E-4,0
GRUS-1B,2021-022C,2025-05-19T20:05:08.818368,14.97674207,.0016959,97.5883,30.0355,199.7564,160.3004,0,U,47934,999,22699,.17226E-3,.1965E-4,0
GRUS-1E,2021-022D,2025-05-19T21:02:46.877280,14.98882488,.0015991,97.5897,30.5525,202.5759,157.4763,0,U,47935,999,22701,.84043E-4,.959E-5,0
GRUS-1D,2021-022E,2025-05-19T20:43:49.119744,14.97733172,.0013416,97.5897,30.2249,187.9473,172.1539,0,U,47936,999,22700,.88729E-4,.985E-5,0
WILDTRACKCUBE-SIMBA,2021-022K,2025-05-19T18:47:39.755328,15.44218995,.0011232,97.4239,43.8648,40.9489,319.2600,0,U,47941,999,22998,.58652E-3,.26959E-3,0
ELSA-D,2021-022N,2025-05-19T18:10:48.135648,15.71563365,.0005128,97.4254,52.4348,47.1677,313.0016,0,U,47944,999,23056,.11556E-2,.150334E-2,0
UNISAT-7,2021-022P,2025-05-19T07:17:14.405280,15.28920346,.0013005,97.4231,37.9875,48.0504,312.1842,0,U,47945,999,22946,.36125E-3,.10101E-3,0
CUBESX-SIRIUS-HSE,2021-022V,2025-05-19T20:01:43.080960,15.90274749,.0005728,97.4106,52.4150,107.8233,252.3665,0,U,47951,999,23055,.12413E-2,.373921E-2,.54108E-4
CUBESX-HSE,2021-022W,2025-05-19T15:46:44.213088,15.90497341,.0005217,97.4122,52.4880,110.7289,249.4544,0,U,47952,999,23054,.12642E-2,.385034E-2,.57506E-4
GRBALPHA,2021-022AD,2025-05-19T09:34:26.797728,15.88577373,.0005338,97.4120,52.2742,104.6610,255.5254,0,U,47959,999,22932,.13584E-2,.375828E-2,.53574E-4
GLOBAL-9,2021-023G,2025-05-19T09:51:21.293568,15.37357775,.0008718,44.9849,282.9474,323.0756,36.9530,0,U,47971,999,23422,.48023E-3,.17679E-3,0
STARLINK-1647,2021-024B,2025-05-19T12:39:26.268768,15.06393334,.0000793,53.0524,217.1647,83.7344,276.3735,0,U,47978,999,23022,.56988E-4,.568E-5,0
STARLINK-2303,2021-024E,2025-05-19T12:23:30.098976,15.06396597,.0001126,53.0550,217.2126,95.9619,264.1498,0,U,47981,999,23022,-.27711E-4,-.694E-5,0
STARLINK-2273,2021-024S,2025-05-19T19:28:06.063456,15.06398206,.0001144,53.0537,175.8875,86.0671,274.0449,0,U,47993,999,23030,.35774E-4,.252E-5,0
STARLINK-2309,2021-024U,2025-05-19T22:00:00.999936,15.59245898,.0001453,53.0475,145.9635,92.6979,351.0836,0,U,47995,999,23073,.26169E-2,.214489E-2,0
STARLINK-2266,2021-024W,2025-05-19T11:09:51.590016,15.06393243,.0001102,53.0542,192.4455,94.2508,265.8607,0,U,47997,999,23056,.18229E-4,-.1E-6,0
